ONEWEB-0620             
1 55161U 23004X   25101.75627943  .00000262  00000+0  70361-3 0  9998
2 55161  87.8793 107.0984 0001740 103.6365 256.4957 13.11419738109283
ONEWEB-0621             
1 55162U 23004Y   25101.93602421  .00000307  00000+0  83101-3 0  9999
2 55162  87.8784 107.0221 0002189  91.9197 268.2182 13.11415692109284
ONEWEB-0622             
1 55163U 23004Z   25101.71219514  .00000040  00000+0  77337-4 0  9992
2 55163  87.8786 107.0885 0002210 112.2023 247.9340 13.11416102109246
ONEWEB-0623             
1 55164U 23004AA  25101.92850957 -.00000268  00000+0 -72324-3 0  9992
2 55164  87.9010  91.7818 0002506 103.9002 256.2408 13.17648488110795
ONEWEB-0624             
1 55165U 23004AB  25101.92115286  .00000411  00000+0  11077-2 0  9997
2 55165  87.8839  76.4727 0002062  89.0107 271.1258 13.12443012111487
ONEWEB-0625             
1 55166U 23004AC  25101.91838617 -.00000280  00000+0 -75322-3 0  9997
2 55166  87.9012  91.7819 0002039  82.6714 277.4650 13.17648142110784
ONEWEB-0626             
1 55167U 23004AD  25101.68045391  .00000013  00000+0 -91931-6 0  9991
2 55167  87.9008  91.8281 0001370  84.3975 275.7312 13.17646577110752
ONEWEB-0627             
1 55168U 23004AE  25101.51676901 -.00000339  00000+0 -90703-3 0  9996
2 55168  87.9008  91.8634 0002186 103.3712 256.7663 13.17649179110739
